{
  "norad_id": 44390,
  "name": "ICEYE-X4",
  "history": [
    {
      "epoch": "2026-03-28T22:20:48.012864Z",
      "apogee_km": 492.25745843234927,
      "perigee_km": 474.59894592193814,
      "latitude_deg": -1.3132832842567662e-05,
      "longitude_deg": -45.341132865462114,
      "height_km": 493.34765605571204,
      "semi_major_axis_km": 6861.565202177143,
      "eccentricity": 0.00128677,
      "inclination_deg": 97.8858,
      "raan_deg": 116.2034,
      "arg_perigee_deg": 219.3843,
      "mean_anomaly_deg": 140.646,
      "mean_motion_rev_day": 15.27453402
    },
    {
      "epoch": "2026-03-29T03:03:48.183264Z",
      "apogee_km": 492.24853755776167,
      "perigee_km": 474.56907862862954,
      "latitude_deg": -1.283448484099305e-05,
      "longitude_deg": -116.07785142941619,
      "height_km": 493.4047155982184,
      "semi_major_axis_km": 6861.545808093196,
      "eccentricity": 0.0012883,
      "inclination_deg": 97.8857,
      "raan_deg": 116.4111,
      "arg_perigee_deg": 218.6806,
      "mean_anomaly_deg": 141.351,
      "mean_motion_rev_day": 15.27459878
    },
    {
      "epoch": "2026-03-30T04:13:08.009760Z",
      "apogee_km": 492.2265987215451,
      "perigee_km": 474.3868450446489,
      "latitude_deg": 5.073750247064336e-06,
      "longitude_deg": -133.33576362736662,
      "height_km": 493.72314996888474,
      "semi_major_axis_km": 6861.443721883096,
      "eccentricity": 0.0013,
      "inclination_deg": 97.8853,
      "raan_deg": 117.5189,
      "arg_perigee_deg": 214.8366,
      "mean_anomaly_deg": 145.2022,
      "mean_motion_rev_day": 15.27493967
    },
    {
      "epoch": "2026-03-30T07:21:47.856096Z",
      "apogee_km": 492.2246607472207,
      "perigee_km": 474.3658620858505,
      "latitude_deg": -5.4055366685615e-05,
      "longitude_deg": 179.50758227662726,
      "height_km": 493.76278670259694,
      "semi_major_axis_km": 6861.432261416535,
      "eccentricity": 0.00130139,
      "inclination_deg": 97.8853,
      "raan_deg": 117.6574,
      "arg_perigee_deg": 214.3472,
      "mean_anomaly_deg": 145.6925,
      "mean_motion_rev_day": 15.27497794
    },
    {
      "epoch": "2026-03-30T13:39:07.447680Z",
      "apogee_km": 492.2141607336507,
      "perigee_km": 474.32414201892243,
      "latitude_deg": -4.831677891040806e-05,
      "longitude_deg": 85.1946793588975,
      "height_km": 493.82750642882905,
      "semi_major_axis_km": 6861.406151376286,
      "eccentricity": 0.00130367,
      "inclination_deg": 97.8852,
      "raan_deg": 117.9344,
      "arg_perigee_deg": 213.4516,
      "mean_anomaly_deg": 146.5899,
      "mean_motion_rev_day": 15.27506513
    },
    {
      "epoch": "2026-03-30T23:05:06.588384Z",
      "apogee_km": 492.19594382321793,
      "perigee_km": 474.25992420381135,
      "latitude_deg": -6.732541434330744e-05,
      "longitude_deg": -56.27374060003397,
      "height_km": 493.92948311873096,
      "semi_major_axis_km": 6861.364934013514,
      "eccentricity": 0.00130703,
      "inclination_deg": 97.885,
      "raan_deg": 118.3498,
      "arg_perigee_deg": 211.9849,
      "mean_anomaly_deg": 148.0596,
      "mean_motion_rev_day": 15.27520277
    },
    {
      "epoch": "2026-03-31T21:05:43.567872Z",
      "apogee_km": 492.1672021304612,
      "perigee_km": 474.1275132971605,
      "latitude_deg": -4.231043162452624e-05,
      "longitude_deg": -26.362353722126038,
      "height_km": 494.16260645904435,
      "semi_major_axis_km": 6861.284357713811,
      "eccentricity": 0.0013146,
      "inclination_deg": 97.8847,
      "raan_deg": 119.3192,
      "arg_perigee_deg": 208.5836,
      "mean_anomaly_deg": 151.4682,
      "mean_motion_rev_day": 15.27547185
    },
    {
      "epoch": "2026-04-01T20:40:38.801280Z",
      "apogee_km": 492.156808891983,
      "perigee_km": 473.98421467627213,
      "latitude_deg": 5.587710304158148e-05,
      "longitude_deg": -20.022283920276625,
      "height_km": 494.403985438815,
      "semi_major_axis_km": 6861.207511784127,
      "eccentricity": 0.0013243,
      "inclination_deg": 97.8844,
      "raan_deg": 120.3579,
      "arg_perigee_deg": 204.9386,
      "mean_anomaly_deg": 155.1214,
      "mean_motion_rev_day": 15.27572848
    }
  ]
}